2022-160A               
1 54372U 22160A   22360.86607639  .00013050  00000+0  55033-3 0  9997
2 54372  34.9997  43.3180 0006047 147.9082 189.5788 15.22490530  4473
2022-160B               
1 54373U 22160B   22360.61442985  .00021686  00000+0  86328-3 0  9997
2 54373  35.0006  44.6348 0008084 161.4094 335.3560 15.24335929  4442
2022-160C               
1 54374U 22160C   22360.83782295  .00009245  00000+0  38924-3 0  9999
2 54374  35.0000  43.5366 0004779 139.7064  26.8994 15.22607944  4436
2022-160D               
1 54375U 22160D   22360.87537037  .00023622  00000+0  92832-3 0  9999
2 54375  35.0007  42.8938 0008498 171.6791 354.7901 15.24747402  4487
2022-160E               
1 54376U 22160E   22360.83849988  .00013534  00000+0  56860-3 0  9999
2 54376  35.0008  43.5447 0007335 161.5371   5.0853 15.22603090  4476
COSMOS 2564 [GLONASS-M] 
1 54377U 22161A   22360.60242870  .00000044  00000+0  00000+0 0  9996
2 54377  64.7749 234.9911 0006978 216.8207 326.6855  2.13102287   595
FREGAT R/B              
1 54378U 22161B   22332.88538517  .00000006  00000+0  00000+0 0  9990
2 54378  64.7543 235.8312 0069964  61.3586  78.3433  2.10629160    00
SHENZHOU-15             
1 54379U 22162A   22360.38949704  .00016622  00000+0  20431-3 0  9997
2 54379  41.4751 128.8868 0004948 220.3876 190.8665 15.59881752 94814
COSMOS 2565             
1 54381U 22163A   22360.94525305 -.00000024  00000+0  36664-4 0  9996
2 54381  67.1556 309.7170 0006794 264.7439  95.2847 13.96674117  3666
SL-4 R/B                
1 54382U 22163B   22360.85303080  .00138816  81768-5  68061-3 0  9992
2 54382  67.1331 298.3823 0442319  68.2230 296.5365 15.08438270  3911
2022-163C               
1 54383U 22163C   22360.86520125  .00000015  00000+0  64249-4 0  9993
2 54383  67.1427 309.8403 0011678 312.1059  47.9032 13.97327263  3341
1998-067UL              
1 54534U 98067UL  22359.71443108  .00046568  00000+0  75006-3 0  9999
2 54534  51.6469 107.5432 0005595 211.4942 148.5725 15.52462441  3686
1998-067UM              
1 54535U 98067UM  22360.76615594  .00053240  00000+0  84390-3 0  9998
2 54535  51.6423 102.2769 0004711 222.7782 270.4923 15.52853732  3848
1998-067UN              
1 54536U 98067UN  22360.89327869  .00041104  00000+0  66539-3 0  9999
2 54536  51.6436 101.6814 0005455 217.1050 249.3425 15.52379173  3821
1998-067UP              
1 54537U 98067UP  22360.82482815  .00046209  00000+0  74045-3 0  9998
2 54537  51.6430 101.9988 0005308 220.2271 233.9769 15.52611096  3854
2022-164A               
1 54588U 22164A   22360.83656840  .00000749  00000+0  22918-3 0  9992
2 54588  98.3553  27.8834 0008982 214.5912 145.4678 14.44550671  2866
KZ-11 R/B               
1 54589U 22164B   22360.80538823  .00016927  22505-5  19095-3 0  9997
2 54589  98.3686  29.9667 0379069  39.1623 323.6394 15.08126454  2985
2022-165A               
1 54640U 22165A   22360.84957834  .00000515  00000+0  12244-3 0  9992
2 54640  98.1184 298.9411 0001034  93.3097 266.8223 14.57769881  2642
2022-165B               
1 54641U 22165B   22360.84335369  .00000556  00000+0  11111-3 0  9993
2 54641  98.0298 298.8080 0033537 244.1593 115.6152 14.65367571  2640
ONEWEB-0527             
1 54642U 22166A   22360.69319830  .00002642  00000+0  26297-3 0  9992
2 54642  86.5176 150.5006 0008801 168.8684 191.2740 14.91213983  2963
ONEWEB-0528             
1 54643U 22166B   22360.69340713  .00002671  00000+0  26604-3 0  9991
2 54643  86.5190 150.5036 0008749 169.5211 190.6200 14.91198145  2964
ONEWEB-0539             
1 54644U 22166C   22360.75723351  .00002959  00000+0  29291-3 0  9996
2 54644  86.5172 150.4667 0010121 167.6252 192.5226 14.91475245  2974
ONEWEB-0540             
1 54645U 22166D   22360.76183945  .00002944  00000+0  29432-3 0  9998
2 54645  86.5156 150.4666 0008540 172.0256 188.1109 14.91087957  2950
ONEWEB-0542             
1 54646U 22166E   22360.88036043  .00002895  00000+0  27967-3 0  9994
2 54646  86.5178 150.4033 0013394 177.1166 183.0142 14.92398191  2971
ONEWEB-0545             
1 54647U 22166F   22360.82827053  .00002876  00000+0  28704-3 0  9997
2 54647  86.5158 150.4375 0008673 170.4871 189.6522 14.91144829  2961
ONEWEB-0580             
1 54648U 22166G   22360.88352352  .00002954  00000+0  28744-3 0  9990
2 54648  86.5165 150.4039 0013057 174.6032 185.5339 14.92133236  2977
ONEWEB-0582             
1 54649U 22166H   22360.88938304  .00002961  00000+0  29179-3 0  9999
2 54649  86.5172 150.4052 0010937 167.7270 192.4226 14.91644253  2979
ONEWEB-0583             
1 54650U 22166J   22360.68630573  .00002397  00000+0  23470-3 0  9997
2 54650  86.5177 150.4961 0011529 168.4816 191.6678 14.91800036  2949
ONEWEB-0584             
1 54651U 22166K   22360.88839080  .00002989  00000+0  29397-3 0  9995
2 54651  86.5171 150.4048 0011249 168.1181 192.0315 14.91730317  2971
ONEWEB-0585             
1 54652U 22166L   22360.69046885  .00002638  00000+0  26105-3 0  9993
2 54652  86.5179 150.4995 0009979 167.8639 192.2831 14.91446272  2948
ONEWEB-0586             
1 54653U 22166M   22360.83078800  .00002723  00000+0  27315-3 0  9991
2 54653  86.5196 150.4477 0008091 175.6731 184.4568 14.90932560  2968
ONEWEB-0587             
1 54654U 22166N   22360.68875102  .00002645  00000+0  26071-3 0  9996
2 54654  86.5183 150.5014 0010671 167.9457 192.2028 14.91589680  2947
ONEWEB-0589             
1 54655U 22166P   22360.67982048 -.00001573  00000+0 -15682-3 0  9991
2 54655  86.5169 150.4923 0013249 178.2571 181.8706 14.92356117  2941
ONEWEB-0590             
1 54656U 22166Q   22360.68078625  .00002897  00000+0  28089-3 0  9993
2 54656  86.5163 150.4918 0013016 176.5160 183.6161 14.92263704  2941
ONEWEB-0591             
1 54657U 22166R   22360.88233846 -.00002744  00000+0 -27236-3 0  9990
2 54657  86.5194 150.4066 0012947 174.8855 185.2508 14.92212449  2970
ONEWEB-0592             
1 54658U 22166S   22360.91667824 -.00920454  00000+0 -12435+0 0  9990
2 54658  86.4673 150.4008 0007967 175.0344 220.4408 14.82052126  1300
ONEWEB-0593             
1 54659U 22166T   22360.88904819  .00006707  00000+0  66388-3 0  9999
2 54659  86.5184 150.4118 0010958 167.9348 192.2144 14.91671266  2978
ONEWEB-0594             
1 54660U 22166U   22360.88472937  .00002938  00000+0  28659-3 0  9993
2 54660  86.5177 150.4059 0012511 171.9156 188.2276 14.92033135  2974
ONEWEB-0595             
1 54661U 22166V   22360.88876414  .00002894  00000+0  28479-3 0  9993
2 54661  86.5185 150.4119 0011142 167.9966 192.1529 14.91696730  2974
ONEWEB-0596             
1 54662U 22166W   22360.68932042  .00002539  00000+0  25044-3 0  9993
2 54662  86.5171 150.4949 0010467 167.6515 192.4971 14.91541961  2943
ONEWEB-0597             
1 54663U 22166X   22360.88293362  .00002955  00000+0  28717-3 0  9993
2 54663  86.5162 150.4028 0012955 174.2944 185.8434 14.92185187  2974
ONEWEB-0600             
1 54664U 22166Y   22360.88117946  .00002960  00000+0  28655-3 0  9994
2 54664  86.5167 150.4030 0013189 176.8047 183.3268 14.92332640  2971
ONEWEB-0601             
1 54665U 22166Z   22360.88315612  .00002873  00000+0  27925-3 0  9997
2 54665  86.5192 150.4067 0012915 173.9102 186.2285 14.92166429  2977
ONEWEB-0602             
1 54666U 22166AA  22360.68255456  .00002646  00000+0  25724-3 0  9998
2 54666  86.5189 150.4954 0012757 173.7646 186.3744 14.92114586  2949
ONEWEB-0603             
1 54667U 22166AB  22360.91667824 -.01003568  00000+0 -14145+0 0  9999
2 54667  86.5377 150.4245 0008612 175.8088 199.0365 14.80542038  1303
ONEWEB-0604             
1 54668U 22166AC  22360.91667824 -.00891122  00000+0 -11731+0 0  9998
2 54668  86.4716 150.4097 0008082 173.7057 235.9359 14.83032413  1306
ONEWEB-0605             
1 54669U 22166AD  22360.91667824 -.01001177  00000+0 -14290+0 0  9996
2 54669  86.5403 150.4295 0008023 178.2935 187.4559 14.80014076  1306
ONEWEB-0606             
1 54670U 22166AE  22360.91667824 -.00886752  00000+0 -11470+0 0  9994
2 54670  86.4757 150.4078 0008321 171.6736 252.6677 14.83742527  1303
ONEWEB-0607             
1 54671U 22166AF  22360.91667824 -.00981581  00000+0 -12401+0 0  9996
2 54671  86.5402 150.4078 0008323 172.5111 266.2982 14.85003681  1304
ONEWEB-0608             
1 54672U 22166AG  22360.91667824 -.00877173  00000+0 -10458+0 0  9998
2 54672  86.5513 150.4022 0012291 171.4536 333.5109 14.87003366  1306
ONEWEB-0610             
1 54673U 22166AH  22360.91667824 -.00838362  00000+0 -10607+0 0  9992
2 54673  86.4774 150.3991 0008784 170.4294 262.1384 14.84498340  1300
ONEWEB-0611             
1 54674U 22166AJ  22360.91667824 -.00883284  00000+0 -10891+0 0  9991
2 54674  86.4832 150.3985 0011190 167.6716 311.8902 14.85665726  1304
ONEWEB-0612             
1 54675U 22166AK  22360.91667824 -.00906527  00000+0 -12076+0 0  9995
2 54675  86.4713 150.4098 0007751 175.9104 226.3526 14.82593287  1301
ONEWEB-0615             
1 54676U 22166AL  22360.91667824 -.00894044  00000+0 -11202+0 0  9996
2 54676  86.4803 150.4016 0010180 166.6341 294.1853 14.85053728  1302
ONEWEB-0655             
1 54677U 22166AM  22360.91667824 -.00866563  00000+0 -10866+0 0  9997
2 54677  86.4757 150.3947 0010180 166.8611 290.3534 14.84938073  1303
ONEWEB-0659             
1 54678U 22166AN  22360.68897057  .00002657  00000+0  26200-3 0  9992
2 54678  86.5172 150.4950 0010576 167.6381 192.5108 14.91572570  2948
ONEWEB-0685             
1 54679U 22166AP  22360.91667824 -.00867650  00000+0 -11639+0 0  9996
2 54679  86.4716 150.4101 0008009 176.9066 213.5226 14.82179991  1305
ONEWEB-0712             
1 54680U 22166AQ  22360.68276749  .00002752  00000+0  26779-3 0  9991
2 54680  86.5188 150.4954 0012681 173.4855 186.6540 14.92101322  2940
ONEWEB-0714             
1 54681U 22166AR  22360.88144044  .00002158  00000+0  20822-3 0  9999
2 54681  86.5191 150.4051 0013121 176.3440 183.7886 14.92311915  2970
